NORAD_CAT_ID,OBJECT_NAME,OBJECT_TYPE,EPOCH,MEAN_MOTION,ECCENTRICITY,INCLINATION,RA_OF_ASC_NODE,ARG_OF_PERICENTER,MEAN_ANOMALY,BSTAR,MEAN_MOTION_DOT,MEAN_MOTION_DDOT,TLE_LINE0,TLE_LINE1,TLE_LINE2,SEMIMAJOR_AXIS,PERIOD,APOGEE,PERIGEE,DECAYED
54206.0,STARLINK-5264,PAYLOAD,2024-06-28 10:17:34,15.08840994,0.0001361,53.216,218.9295,81.7983,278.3163,9.0426e-05,1.152e-05,0.0,0 STARLINK-5264,1 54206U 22141BB  24180.42887621  .00001152  00000-0  90426-4 0  9994,2 54206  53.2160 218.9295 0001361  81.7983 278.3163 15.08840994 93009,6917.877,95.437,540.684,538.801,0.0
54206.0,STARLINK-5264,PAYLOAD,2024-06-29 11:43:44,15.08851324,0.0001595,53.2169,214.1697,74.4938,285.623,0.00016958,2.413e-05,0.0,0 STARLINK-5264,1 54206U 22141BB  24181.48870758  .00002413  00000-0  16958-3 0  9992,2 54206  53.2169 214.1697 0001595  74.4938 285.6230 15.08851324 93397,6917.846,95.437,540.814,538.607,0.0
54206.0,STARLINK-5264,PAYLOAD,2024-06-29 19:40:40,15.08835256,0.0001534,53.2158,212.6844,85.4769,274.6398,1.7614e-05,-8e-08,0.0,0 STARLINK-5264,1 54206U 22141BB  24181.81991846 -.00000008  00000-0  17614-4 0  9991,2 54206  53.2158 212.6844 0001534  85.4769 274.6398 15.08835256 93444,6917.895,95.438,540.821,538.699,0.0
54206.0,STARLINK-5264,PAYLOAD,2024-06-30 08:23:46,15.08831164,0.0001468,53.2144,210.3061,92.0935,268.0225,-0.00010388,-1.94e-05,0.0,0 STARLINK-5264,1 54206U 22141BB  24182.34984232 -.00001940  00000-0 -10388-3 0  9998,2 54206  53.2144 210.3061 0001468  92.0935 268.0225 15.08831164 93293,6917.907,95.438,540.788,538.757,0.0
54206.0,STARLINK-5264,PAYLOAD,2024-07-01 05:03:47,15.08844708,0.0001479,53.2175,206.4415,86.1968,273.9193,-4.2327e-05,-9.62e-06,0.0,0 STARLINK-5264,1 54206U 22141BB  24183.21096162 -.00000962  00000-0 -42327-4 0  9993,2 54206  53.2175 206.4415 0001479  86.1968 273.9193 15.08844708 93655,6917.866,95.437,540.754,538.708,0.0
54206.0,STARLINK-5264,PAYLOAD,2024-07-01 08:14:33,15.08847837,0.0001357,53.2165,205.8474,83.6744,276.4402,-9.1079e-05,-1.737e-05,0.0,0 STARLINK-5264,1 54206U 22141BB  24183.34344075 -.00001737  00000-0 -91079-4 0  9995,2 54206  53.2165 205.8474 0001357  83.6744 276.4402 15.08847837 93445,6917.856,95.437,540.66,538.783,0.0
54206.0,STARLINK-5264,PAYLOAD,2024-07-02 08:05:20,15.08842959,0.0001392,53.2149,201.3865,78.4612,281.6536,0.00029826,4.462e-05,0.0,0 STARLINK-5264,1 54206U 22141BB  24184.33704367  .00004462  00000-0  29826-3 0  9995,2 54206  53.2149 201.3865 0001392  78.4612 281.6536 15.08842959 93825,6917.871,95.437,540.699,538.773,0.0
54206.0,STARLINK-5264,PAYLOAD,2024-07-02 17:37:39,15.08843399,0.0001379,53.2143,199.6019,76.1345,283.98,0.00019935,2.886e-05,0.0,0 STARLINK-5264,1 54206U 22141BB  24184.73448270  .00002886  00000-0  19935-3 0  9995,2 54206  53.2143 199.6019 0001379  76.1345 283.9800 15.08843399 93651,6917.87,95.437,540.689,538.781,0.0
54206.0,STARLINK-5264,PAYLOAD,2024-07-03 06:20:44,15.08842306,0.0001422,53.2145,197.2233,78.0674,282.0478,7.6236e-05,9.26e-06,0.0,0 STARLINK-5264,1 54206U 22141BB  24185.26440194  .00000926  00000-0  76236-4 0  9992,2 54206  53.2145 197.2233 0001422  78.0674 282.0478 15.08842306 93962,6917.873,95.437,540.722,538.755,0.0
54206.0,STARLINK-5264,PAYLOAD,2024-07-03 17:28:26,15.08842926,0.0001433,53.2143,195.1419,78.0955,282.0197,3.3706e-05,2.49e-06,0.0,0 STARLINK-5264,1 54206U 22141BB  24185.72808035  .00000249  00000-0  33706-4 0  9998,2 54206  53.2143 195.1419 0001433  78.0955 282.0197 15.08842926 93806,6917.871,95.437,540.728,538.745,0.0
54206.0,STARLINK-5264,PAYLOAD,2024-07-04 07:46:54,15.08840388,0.0001422,53.2157,192.4661,81.3239,278.7914,1.2302e-05,-9.2e-07,0.0,0 STARLINK-5264,1 54206U 22141BB  24186.32424404 -.00000092  00000-0  12302-4 0  9995,2 54206  53.2157 192.4661 0001422  81.3239 278.7914 15.08840388 94125,6917.879,95.438,540.728,538.76,0.0
54206.0,STARLINK-5264,PAYLOAD,2024-07-04 17:19:13,15.08840508,0.0001424,53.2156,190.6819,81.231,278.8844,2.3279e-05,8.3e-07,0.0,0 STARLINK-5264,1 54206U 22141BB  24186.72168313  .00000083  00000-0  23279-4 0  9997,2 54206  53.2156 190.6819 0001424  81.2310 278.8844 15.08840508 93957,6917.879,95.438,540.729,538.759,0.0
54206.0,STARLINK-5264,PAYLOAD,2024-07-05 09:13:04,15.0884167,0.0001423,53.2159,187.7079,84.2129,275.9026,6.4832e-05,7.44e-06,0.0,0 STARLINK-5264,1 54206U 22141BB  24187.38408116  .00000744  00000-0  64832-4 0  9992,2 54206  53.2159 187.7079 0001423  84.2129 275.9026 15.08841670 94283,6917.875,95.437,540.725,538.756,0.0
54206.0,STARLINK-5264,PAYLOAD,2024-07-05 17:10:00,15.08838933,0.0001425,53.2161,186.2211,85.7563,274.3592,4.6146e-05,4.47e-06,0.0,0 STARLINK-5264,1 54206U 22141BB  24187.71528346  .00000447  00000-0  46146-4 0  9995,2 54206  53.2161 186.2211 0001425  85.7563 274.3592 15.08838933 94108,6917.884,95.438,540.734,538.763,0.0
54206.0,STARLINK-5264,PAYLOAD,2024-07-06 04:17:42,15.08837283,0.0001417,53.216,184.1393,86.233,273.8824,5.2558e-05,5.49e-06,0.0,0 STARLINK-5264,1 54206U 22141BB  24188.17896501  .00000549  00000-0  52558-4 0  9994,2 54206  53.2160 184.1393 0001417  86.2330 273.8824 15.08837283 94406,6917.889,95.438,540.734,538.773,0.0
54206.0,STARLINK-5264,PAYLOAD,2024-07-06 09:03:51,15.08839672,0.0001404,53.2158,183.2471,86.6708,273.4445,6.1014e-05,6.83e-06,0.0,0 STARLINK-5264,1 54206U 22141BB  24188.37768327  .00000683  00000-0  61014-4 0  9996,2 54206  53.2158 183.2471 0001404  86.6708 273.4445 15.08839672 94206,6917.881,95.438,540.718,538.775,0.0
54206.0,STARLINK-5264,PAYLOAD,2024-07-06 17:00:47,15.08837859,0.000141,53.2158,181.7603,86.3591,273.7562,3.7261e-05,3.05e-06,0.0,0 STARLINK-5264,1 54206U 22141BB  24188.70888469  .00000305  00000-0  37261-4 0  9991,2 54206  53.2158 181.7603 0001410  86.3591 273.7562 15.08837859 94253,6917.887,95.438,540.727,538.777,0.0
54206.0,STARLINK-5264,PAYLOAD,2024-07-07 08:54:38,15.08840484,0.0001412,53.2159,178.7861,87.9559,272.1595,3.5969e-05,2.85e-06,0.0,0 STARLINK-5264,1 54206U 22141BB  24189.37128364  .00000285  00000-0  35969-4 0  9996,2 54206  53.2159 178.7861 0001412  87.9559 272.1595 15.08840484 94582,6917.879,95.438,540.721,538.767,0.0
54206.0,STARLINK-5264,PAYLOAD,2024-07-08 08:45:25,15.08842992,0.0001408,53.2166,174.3244,93.6615,266.4538,7.4756e-05,9.02e-06,0.0,0 STARLINK-5264,1 54206U 22141BB  24190.36488002  .00000902  00000-0  74756-4 0  9998,2 54206  53.2166 174.3244 0001408  93.6615 266.4538 15.08842992 94500,6917.871,95.437,540.71,538.762,0.0
54206.0,STARLINK-5264,PAYLOAD,2024-07-09 05:25:27,15.08835815,0.0001367,53.2161,170.4608,87.3651,272.7498,3.0586e-05,1.99e-06,0.0,0 STARLINK-5264,1 54206U 22141BB  24191.22600768  .00000199  00000-0  30586-4 0  9990,2 54206  53.2161 170.4608 0001367  87.3651 272.7498 15.08835815 94860,6917.893,95.438,540.704,538.813,0.0
54206.0,STARLINK-5264,PAYLOAD,2024-07-09 08:36:13,15.08839447,0.0001317,53.2158,169.8655,85.767,274.3472,2.3153e-05,8.1e-07,0.0,0 STARLINK-5264,1 54206U 22141BB  24191.35848556  .00000081  00000-0  23153-4 0  9995,2 54206  53.2158 169.8655 0001317  85.7670 274.3472 15.08839447 94650,6917.882,95.438,540.658,538.836,0.0
54206.0,STARLINK-5264,PAYLOAD,2024-07-10 08:27:00,15.08816746,0.0001417,53.2155,165.4041,90.694,269.4215,0.0002905,4.336e-05,0.0,0 STARLINK-5264,1 54206U 22141BB  24192.35209423  .00004336  00000-0  29050-3 0  9998,2 54206  53.2155 165.4041 0001417  90.6940 269.4215 15.08816746 95034,6917.951,95.439,540.797,538.836,0.0
54206.0,STARLINK-5264,PAYLOAD,2024-07-10 14:48:33,15.08840144,0.0001331,53.2157,164.2146,86.0413,274.0731,-5.6535e-06,-3.78e-06,0.0,0 STARLINK-5264,1 54206U 22141BB  24192.61704907 -.00000378  00000-0 -56535-5 0  9998,2 54206  53.2157 164.2146 0001331  86.0413 274.0731 15.08840144 95076,6917.88,95.438,540.666,538.824,0.0
54206.0,STARLINK-5264,PAYLOAD,2024-07-10 22:45:28,15.08835098,0.0001361,53.2158,162.7276,84.6868,275.4279,5.3123e-05,5.58e-06,0.0,0 STARLINK-5264,1 54206U 22141BB  24192.94825179  .00000558  00000-0  53123-4 0  9996,2 54206  53.2158 162.7276 0001361  84.6868 275.4279 15.08835098 94898,6917.895,95.438,540.702,538.819,0.0
54206.0,STARLINK-5264,PAYLOAD,2024-07-11 06:42:24,15.08841867,0.000141,53.2164,161.2411,85.2339,274.8814,0.00010479,1.38e-05,0.0,0 STARLINK-5264,1 54206U 22141BB  24193.27944689  .00001380  00000-0  10479-3 0  9991,2 54206  53.2164 161.2411 0001410  85.2339 274.8814 15.08841867 94940,6917.875,95.437,540.715,538.764,0.0
54206.0,STARLINK-5264,PAYLOAD,2024-07-12 04:57:48,15.08836939,0.000142,53.2168,157.0786,86.6429,273.4725,4.2553e-05,3.89e-06,0.0,0 STARLINK-5264,1 54206U 22141BB  24194.20681493  .00000389  00000-0  42553-4 0  9993,2 54206  53.2168 157.0786 0001420  86.6429 273.4725 15.08836939 95310,6917.89,95.438,540.737,538.772,0.0
54206.0,STARLINK-5264,PAYLOAD,2024-07-12 14:30:07,15.08837945,0.0001464,53.2172,155.2945,86.3174,273.7986,4.0986e-05,3.64e-06,0.0,0 STARLINK-5264,1 54206U 22141BB  24194.60425524  .00000364  00000-0  40986-4 0  9999,2 54206  53.2172 155.2945 0001464  86.3174 273.7986 15.08837945 95145,6917.887,95.438,540.764,538.739,0.0
54206.0,STARLINK-5264,PAYLOAD,2024-07-13 04:48:35,15.08847879,0.0001675,53.2178,152.6178,91.5308,268.5876,4.7237e-05,4.64e-06,0.0,0 STARLINK-5264,1 54206U 22141BB  24195.20040919  .00000464  00000-0  47237-4 0  9994,2 54206  53.2178 152.6178 0001675  91.5308 268.5876 15.08847879 95463,6917.856,95.437,540.88,538.563,0.0
54206.0,STARLINK-5264,PAYLOAD,2024-07-13 14:20:54,15.08840488,0.0001566,53.2177,150.8321,85.8005,274.3166,3.2933e-05,2.36e-06,0.0,0 STARLINK-5264,1 54206U 22141BB  24195.59785329  .00000236  00000-0  32933-4 0  9991,2 54206  53.2177 150.8321 0001566  85.8005 274.3166 15.08840488 95298,6917.879,95.438,540.827,538.661,0.0
54206.0,STARLINK-5264,PAYLOAD,2024-07-14 06:14:45,15.08847254,0.0001339,53.2159,147.8571,102.8371,257.2771,8.8543e-05,1.122e-05,0.0,0 STARLINK-5264,1 54206U 22141BB  24196.26024658  .00001122  00000-0  88543-4 0  9990,2 54206  53.2159 147.8571 0001339 102.8371 257.2771 15.08847254 95622,6917.858,95.437,540.65,538.797,0.0
